[{"CCSDS_OMM_VERS":"2.0","COMMENT":"GENERATED VIA SPACE-TRACK.ORG API","CREATION_DATE":"2020-12-24T01:56:10","ORIGINATOR":"18 SPCS","OBJECT_NAME":"ONEWEB-0135","OBJECT_ID":"2020-100Z","CENTER_NAME":"EARTH","REF_FRAME":"TEME","TIME_SYSTEM":"UTC","MEAN_ELEMENT_THEORY":"SGP4","EPOCH":"2020-12-24T00:00:02.000160","MEAN_MOTION":"15.42153847","ECCENTRICITY":"0.00090600","INCLINATION":"87.3979","RA_OF_ASC_NODE":"37.7345","ARG_OF_PERICENTER":"235.3241","MEAN_ANOMALY":"337.2474","EPHEMERIS_TYPE":"0","CLASSIFICATION_TYPE":"U","NORAD_CAT_ID":"47281","ELEMENT_SET_NO":"999","REV_AT_EPOCH":"83","BSTAR":"0.00175430000000","MEAN_MOTION_DOT":"0.00075834","MEAN_MOTION_DDOT":"0.0000000000000","SEMIMAJOR_AXIS":"6817.890","PERIOD":"93.375","APOAPSIS":"445.932","PERIAPSIS":"433.578","OBJECT_TYPE":"PAYLOAD","RCS_SIZE":null,"COUNTRY_CODE":"UK","LAUNCH_DATE":"2020-12-18","SITE":"VOSTO","DECAY_DATE":null,"FILE":"2908624","GP_ID":"168286844","TLE_LINE0":"0 ONEWEB-0135","TLE_LINE1":"1 47281U 20100Z   20359.00002315  .00075834  00000-0  17543-2 0  9994","TLE_LINE2":"2 47281  87.3979  37.7345 0009060 235.3241 337.2474 15.42153847   832"},{"CCSDS_OMM_VERS":"2.0","COMMENT":"GENERATED VIA SPACE-TRACK.ORG API","CREATION_DATE":"2020-12-24T14:36:10","ORIGINATOR":"18 SPCS","OBJECT_NAME":"ONEWEB-0135","OBJECT_ID":"2020-100Z","CENTER_NAME":"EARTH","REF_FRAME":"TEME","TIME_SYSTEM":"UTC","MEAN_ELEMENT_THEORY":"SGP4","EPOCH":"2020-12-24T12:00:00.999648","MEAN_MOTION":"15.42165851","ECCENTRICITY":"0.00091510","INCLINATION":"87.3978","RA_OF_ASC_NODE":"37.5543","ARG_OF_PERICENTER":"233.3966","MEAN_ANOMALY":"233.1227","EPHEMERIS_TYPE":"0","CLASSIFICATION_TYPE":"U","NORAD_CAT_ID":"47281","ELEMENT_SET_NO":"999","REV_AT_EPOCH":"91","BSTAR":"0.00167790000000","MEAN_MOTION_DOT":"0.00072534","MEAN_MOTION_DDOT":"0.0000000000000","SEMIMAJOR_AXIS":"6817.855","PERIOD":"93.375","APOAPSIS":"445.959","PERIAPSIS":"433.481","OBJECT_TYPE":"PAYLOAD","RCS_SIZE":null,"COUNTRY_CODE":"UK","LAUNCH_DATE":"2020-12-18","SITE":"VOSTO","DECAY_DATE":null,"FILE":"2908920","GP_ID":"168292936","TLE_LINE0":"0 ONEWEB-0135","TLE_LINE1":"1 47281U 20100Z   20359.50001157  .00072534  00000-0  16779-2 0  9996","TLE_LINE2":"2 47281  87.3978  37.5543 0009151 233.3966 233.1227 15.42165851   919"},{"CCSDS_OMM_VERS":"2.0","COMMENT":"GENERATED VIA SPACE-TRACK.ORG API","CREATION_DATE":"2020-12-24T22:26:10","ORIGINATOR":"18 SPCS","OBJECT_NAME":"ONEWEB-0135","OBJECT_ID":"2020-100Z","CENTER_NAME":"EARTH","REF_FRAME":"TEME","TIME_SYSTEM":"UTC","MEAN_ELEMENT_THEORY":"SGP4","EPOCH":"2020-12-24T16:12:41.973120","MEAN_MOTION":"15.42203538","ECCENTRICITY":"0.00091330","INCLINATION":"87.3978","RA_OF_ASC_NODE":"37.4922","ARG_OF_PERICENTER":"232.3141","MEAN_ANOMALY":"127.7288","EPHEMERIS_TYPE":"0","CLASSIFICATION_TYPE":"U","NORAD_CAT_ID":"47281","ELEMENT_SET_NO":"999","REV_AT_EPOCH":"94","BSTAR":"0.00014892000000","MEAN_MOTION_DOT":"0.00006435","MEAN_MOTION_DDOT":"0.0000000000000","SEMIMAJOR_AXIS":"6817.744","PERIOD":"93.372","APOAPSIS":"445.835","PERIAPSIS":"433.382","OBJECT_TYPE":"PAYLOAD","RCS_SIZE":null,"COUNTRY_CODE":"UK","LAUNCH_DATE":"2020-12-18","SITE":"VOSTO","DECAY_DATE":null,"FILE":"2909145","GP_ID":"168298825","TLE_LINE0":"0 ONEWEB-0135","TLE_LINE1":"1 47281U 20100Z   20359.67548580  .00006435  00000-0  14892-3 0  9992","TLE_LINE2":"2 47281  87.3978  37.4922 0009133 232.3141 127.7288 15.42203538   946"},{"CCSDS_OMM_VERS":"2.0","COMMENT":"GENERATED VIA SPACE-TRACK.ORG API","CREATION_DATE":"2020-12-25T04:33:57","ORIGINATOR":"18 SPCS","OBJECT_NAME":"ONEWEB-0135","OBJECT_ID":"2020-100Z","CENTER_NAME":"EARTH","REF_FRAME":"TEME","TIME_SYSTEM":"UTC","MEAN_ELEMENT_THEORY":"SGP4","EPOCH":"2020-12-24T20:53:00.890016","MEAN_MOTION":"15.42207080","ECCENTRICITY":"0.00091560","INCLINATION":"87.3978","RA_OF_ASC_NODE":"37.4226","ARG_OF_PERICENTER":"231.4143","MEAN_ANOMALY":"128.6294","EPHEMERIS_TYPE":"0","CLASSIFICATION_TYPE":"U","NORAD_CAT_ID":"47281","ELEMENT_SET_NO":"999","REV_AT_EPOCH":"97","BSTAR":"0.00016078000000","MEAN_MOTION_DOT":"0.00006945","MEAN_MOTION_DDOT":"0.0000000000000","SEMIMAJOR_AXIS":"6817.733","PERIOD":"93.372","APOAPSIS":"445.841","PERIAPSIS":"433.356","OBJECT_TYPE":"PAYLOAD","RCS_SIZE":null,"COUNTRY_CODE":"UK","LAUNCH_DATE":"2020-12-18","SITE":"VOSTO","DECAY_DATE":null,"FILE":"2909283","GP_ID":"168323420","TLE_LINE0":"0 ONEWEB-0135","TLE_LINE1":"1 47281U 20100Z   20359.87014919  .00006945  00000-0  16078-3 0  9992","TLE_LINE2":"2 47281  87.3978  37.4226 0009156 231.4143 128.6294 15.42207080   976"},{"CCSDS_OMM_VERS":"2.0","COMMENT":"GENERATED VIA SPACE-TRACK.ORG API","CREATION_DATE":"2020-12-25T18:44:12","ORIGINATOR":"18 SPCS","OBJECT_NAME":"ONEWEB-0135","OBJECT_ID":"2020-100Z","CENTER_NAME":"EARTH","REF_FRAME":"TEME","TIME_SYSTEM":"UTC","MEAN_ELEMENT_THEORY":"SGP4","EPOCH":"2020-12-25T14:00:50.128992","MEAN_MOTION":"15.42213642","ECCENTRICITY":"0.00092500","INCLINATION":"87.3976","RA_OF_ASC_NODE":"37.1673","ARG_OF_PERICENTER":"227.9815","MEAN_ANOMALY":"132.0655","EPHEMERIS_TYPE":"0","CLASSIFICATION_TYPE":"U","NORAD_CAT_ID":"47281","ELEMENT_SET_NO":"999","REV_AT_EPOCH":"108","BSTAR":"0.00013122000000","MEAN_MOTION_DOT":"0.00005677","MEAN_MOTION_DDOT":"0.0000000000000","SEMIMAJOR_AXIS":"6817.714","PERIOD":"93.372","APOAPSIS":"445.885","PERIAPSIS":"433.273","OBJECT_TYPE":"PAYLOAD","RCS_SIZE":null,"COUNTRY_CODE":"UK","LAUNCH_DATE":"2020-12-18","SITE":"VOSTO","DECAY_DATE":null,"FILE":"2909760","GP_ID":"168354858","TLE_LINE0":"0 ONEWEB-0135","TLE_LINE1":"1 47281U 20100Z   20360.58391353  .00005677  00000-0  13122-3 0  9990","TLE_LINE2":"2 47281  87.3976  37.1673 0009250 227.9815 132.0655 15.42213642  1082"},{"CCSDS_OMM_VERS":"2.0","COMMENT":"GENERATED VIA SPACE-TRACK.ORG API","CREATION_DATE":"2020-12-25T22:26:09","ORIGINATOR":"18 SPCS","OBJECT_NAME":"ONEWEB-0135","OBJECT_ID":"2020-100Z","CENTER_NAME":"EARTH","REF_FRAME":"TEME","TIME_SYSTEM":"UTC","MEAN_ELEMENT_THEORY":"SGP4","EPOCH":"2020-12-25T20:00:01.000224","MEAN_MOTION":"15.42225412","ECCENTRICITY":"0.00092940","INCLINATION":"87.3979","RA_OF_ASC_NODE":"37.0788","ARG_OF_PERICENTER":"226.1810","MEAN_ANOMALY":"77.7303","EPHEMERIS_TYPE":"0","CLASSIFICATION_TYPE":"U","NORAD_CAT_ID":"47281","ELEMENT_SET_NO":"999","REV_AT_EPOCH":"111","BSTAR":"-0.00063290000000","MEAN_MOTION_DOT":"-0.00027005","MEAN_MOTION_DDOT":"0.0000000000000","SEMIMAJOR_AXIS":"6817.679","PERIOD":"93.371","APOAPSIS":"445.881","PERIAPSIS":"433.208","OBJECT_TYPE":"PAYLOAD","RCS_SIZE":null,"COUNTRY_CODE":"UK","LAUNCH_DATE":"2020-12-18","SITE":"VOSTO","DECAY_DATE":null,"FILE":"2909808","GP_ID":"168355664","TLE_LINE0":"0 ONEWEB-0135","TLE_LINE1":"1 47281U 20100Z   20360.83334491 -.00027005  00000-0 -63290-3 0  9990","TLE_LINE2":"2 47281  87.3979  37.0788 0009294 226.1810  77.7303 15.42225412  1112"},{"CCSDS_OMM_VERS":"2.0","COMMENT":"GENERATED VIA SPACE-TRACK.ORG API","CREATION_DATE":"2020-12-26T04:08:36","ORIGINATOR":"18 SPCS","OBJECT_NAME":"ONEWEB-0135","OBJECT_ID":"2020-100Z","CENTER_NAME":"EARTH","REF_FRAME":"TEME","TIME_SYSTEM":"UTC","MEAN_ELEMENT_THEORY":"SGP4","EPOCH":"2020-12-25T22:00:10.000224","MEAN_MOTION":"15.42191305","ECCENTRICITY":"0.00093700","INCLINATION":"87.3979","RA_OF_ASC_NODE":"37.0490","ARG_OF_PERICENTER":"225.7415","MEAN_ANOMALY":"181.0981","EPHEMERIS_TYPE":"0","CLASSIFICATION_TYPE":"U","NORAD_CAT_ID":"47281","ELEMENT_SET_NO":"999","REV_AT_EPOCH":"179","BSTAR":"0.00097924000000","MEAN_MOTION_DOT":"0.00042227","MEAN_MOTION_DDOT":"0.0000000000000","SEMIMAJOR_AXIS":"6817.780","PERIOD":"93.373","APOAPSIS":"446.033","PERIAPSIS":"433.257","OBJECT_TYPE":"PAYLOAD","RCS_SIZE":null,"COUNTRY_CODE":"UK","LAUNCH_DATE":"2020-12-18","SITE":"VOSTO","DECAY_DATE":null,"FILE":"2909949","GP_ID":"168380713","TLE_LINE0":"0 ONEWEB-0135","TLE_LINE1":"1 47281U 20100Z   20360.91678241  .00042227  00000-0  97924-3 0  9995","TLE_LINE2":"2 47281  87.3979  37.0490 0009370 225.7415 181.0981 15.42191305  1791"},{"CCSDS_OMM_VERS":"2.0","COMMENT":"GENERATED VIA SPACE-TRACK.ORG API","CREATION_DATE":"2020-12-26T06:36:09","ORIGINATOR":"18 SPCS","OBJECT_NAME":"ONEWEB-0135","OBJECT_ID":"2020-100Z","CENTER_NAME":"EARTH","REF_FRAME":"TEME","TIME_SYSTEM":"UTC","MEAN_ELEMENT_THEORY":"SGP4","EPOCH":"2020-12-26T04:01:46.531488","MEAN_MOTION":"15.42221048","ECCENTRICITY":"0.00093310","INCLINATION":"87.3975","RA_OF_ASC_NODE":"36.9584","ARG_OF_PERICENTER":"225.1908","MEAN_ANOMALY":"134.8591","EPHEMERIS_TYPE":"0","CLASSIFICATION_TYPE":"U","NORAD_CAT_ID":"47281","ELEMENT_SET_NO":"999","REV_AT_EPOCH":"117","BSTAR":"0.00013557000000","MEAN_MOTION_DOT":"0.00005866","MEAN_MOTION_DDOT":"0.0000000000000","SEMIMAJOR_AXIS":"6817.692","PERIOD":"93.371","APOAPSIS":"445.919","PERIAPSIS":"433.196","OBJECT_TYPE":"PAYLOAD","RCS_SIZE":null,"COUNTRY_CODE":"UK","LAUNCH_DATE":"2020-12-18","SITE":"VOSTO","DECAY_DATE":null,"FILE":"2909999","GP_ID":"168381829","TLE_LINE0":"0 ONEWEB-0135","TLE_LINE1":"1 47281U 20100Z   20361.16789967  .00005866  00000-0  13557-3 0  9999","TLE_LINE2":"2 47281  87.3975  36.9584 0009331 225.1908 134.8591 15.42221048  1170"}]